STARLINK-2682           
1 48440U 21040N   24206.87184530  .00019329  00000+0  13127-2 0  9996
2 48440  53.0544 322.8798 0001493  77.9247 282.1909 15.06406723177724
STARLINK-2702           
1 48441U 21040P   24206.33737182  .00002983  00000+0  21901-3 0  9993
2 48441  53.0554 325.2802 0003740  98.8061 261.3351 15.06417000177193
STARLINK-2644           
1 48442U 21040Q   24206.33368968  .00020751  00000+0  14077-2 0  9994
2 48442  53.0548 325.2998 0003126 285.6052  74.4592 15.06403852177197
STARLINK-2663           
1 48443U 21040R   24206.33000991  .00018341  00000+0  12471-2 0  9992
2 48443  53.0554 325.3137 0001000 321.0627  39.0290 15.06397532177192
STARLINK-2645           
1 48444U 21040S   24206.32632502  .00011384  00000+0  78220-3 0  9996
2 48444  53.0525 325.3279 0002033  93.4667 266.6554 15.06384800177194
STARLINK-2634           
1 48445U 21040T   24206.72074154  .00015424  00000+0  10524-2 0  9995
2 48445  53.0550 323.5578 0003111  69.6937 290.4386 15.06388828177257
STARLINK-2247           
1 48446U 21040U   24206.91608181  .00039636  00000+0  26684-2 0  9995
2 48446  53.0581 322.6810 0001221  65.3587 294.7529 15.06351239178562
STARLINK-2632           
1 48448U 21040W   24206.91667824  .00340953  00000+0  12838-2 0  9999
2 48448  53.0442 261.2587 0012906   8.7161 244.9477 15.86248401  6024
STARLINK-2655           
1 48449U 21040X   24206.70965882  .00009779  00000+0  67481-3 0  9995
2 48449  53.0537 323.6104 0000766 124.2645 235.8417 15.06382775177252
STARLINK-2660           
1 48450U 21040Y   24206.70871678  .00009347  00000+0  64577-3 0  9990
2 48450  53.0541 323.6415 0000853 107.8699 252.2383 15.06387939177259
STARLINK-2652           
1 48451U 21040Z   24206.91667824  .00229768  00000+0  11005-2 0  9998
2 48451  53.0449 261.9463 0010944  13.0588 101.6398 15.81500640  5961
STARLINK-2703           
1 48452U 21040AA  24206.70228816  .00010521  00000+0  72420-3 0  9994
2 48452  53.0609 323.6167 0000918  14.2170 345.8845 15.06398250177257
STARLINK-2620           
1 48453U 21040AB  24206.69860613  .00000249  00000+0  35623-4 0  9991
2 48453  53.0555 323.6539 0002071 102.1123 258.0098 15.06382287177256
STARLINK-2654           
1 48454U 21040AC  24206.36318556  .00016268  00000+0  11088-2 0  9995
2 48454  53.0551 325.1630 0002913  80.5455 279.5864 15.06387991177205
STARLINK-2497           
1 48455U 21040AD  24206.55853584 -.00002789  00000+0 -16849-3 0  9998
2 48455  53.0599 324.2793 0001653 115.2111 244.9050 15.06387221177831
STARLINK-2508           
1 48456U 21040AE  24206.91667824  .00319732  00000+0  12132-2 0  9996
2 48456  53.0434 255.6046 0012127  13.0415 124.5330 15.86155881  6027
STARLINK-2698           
1 48458U 21040AG  24206.89903522 -.00000323  00000+0 -27985-5 0  9993
2 48458  53.0612 327.8449 0001358  91.9606 268.1539 15.06393335177752
STARLINK-2579           
1 48459U 21040AH  24206.36091608  .00004051  00000+0  29060-3 0  9993
2 48459  53.0539 330.5281 0002900  89.9835 270.1487 15.06414824177135
STARLINK-2582           
1 48460U 21040AJ  24206.37930519  .00001954  00000+0  15003-3 0  9990
2 48460  53.0553 330.0919 0001261 338.9223  21.1714 15.06407397177643
STARLINK-2693           
1 48461U 21040AK  24206.72579314  .00022534  00000+0  15273-2 0  9997
2 48461  53.0594 328.5362 0000947  79.3741 280.7355 15.06389909177196
STARLINK-2683           
1 48462U 21040AL  24206.37703293  .00010912  00000+0  75031-3 0  9990
2 48462  53.0549 335.3802 0000650 339.1599  20.9363 15.06398847177061
STARLINK-2689           
1 48463U 21040AM  24206.38342944  .00000817  00000+0  73714-4 0  9994
2 48463  53.0562 335.0709 0001182 328.0383  32.0534 15.06396382177076
STARLINK-2686           
1 48464U 21040AN  24206.76034181  .00015025  00000+0  10252-2 0  9991
2 48464  53.0612 333.3818 0000651 304.4761  55.6166 15.06408680177126
STARLINK-2681           
1 48465U 21040AP  24206.37330526  .00018215  00000+0  12382-2 0  9991
2 48465  53.0560 335.1186 0003016 297.9743  62.0940 15.06408633177075
STARLINK-2687           
1 48466U 21040AQ  24206.35857586  .00017339  00000+0  11801-2 0  9991
2 48466  53.0561 335.1854 0003469  89.5443 270.5943 15.06397229177070
STARLINK-2659           
1 48467U 21040AR  24206.38437010  .00007930  00000+0  55053-3 0  9995
2 48467  53.0556 335.0658 0000468  73.7346 286.3695 15.06407415177077
STARLINK-2685           
1 48468U 21040AS  24206.36594457  .00011313  00000+0  77726-3 0  9994
2 48468  53.0503 335.1495 0002483  87.4682 272.6591 15.06393591177076
STARLINK-2661           
1 48469U 21040AT  24206.38068877  .00020182  00000+0  13699-2 0  9991
2 48469  53.0556 335.0838 0001423 328.2691  31.8212 15.06399560177071
STARLINK-2675           
1 48470U 21040AU  24206.74195653  .00004413  00000+0  31519-3 0  9997
2 48470  53.0555 333.8078 0001803  90.3696 269.7500 15.06374328177110
STARLINK-2684           
1 48471U 21040AV  24206.76771761  .00008840  00000+0  61178-3 0  9992
2 48471  53.0571 333.3482 0000819  85.0523 275.0559 15.06390811177129
STARLINK-2722           
1 48472U 21040AW  24206.35120500  .00016680  00000+0  11366-2 0  9991
2 48472  53.0557 335.2173 0001161  93.0039 267.1083 15.06380438177054
STARLINK-2658           
1 48473U 21040AX  24206.38805687  .00013181  00000+0  90221-3 0  9992
2 48473  53.0559 335.0490 0000831  58.8978 301.2092 15.06395662177067
STARLINK-2697           
1 48474U 21040AY  24206.75297790  .00000665  00000+0  63504-4 0  9992
2 48474  53.0551 333.4106 0000889  99.4225 260.6865 15.06388321177111
STARLINK-2619           
1 48475U 21040AZ  24206.39174562 -.00000113  00000+0  11348-4 0  9992
2 48475  53.0515 335.0324 0001883  96.1927 263.9276 15.06395148177061
STARLINK-2723           
1 48476U 21040BA  24206.74559585  .00004541  00000+0  32353-3 0  9990
2 48476  53.0558 333.4455 0000627 224.6939 135.3999 15.06398235177112
STARLINK-2728           
1 48478U 21040BC  24206.73085328  .00004680  00000+0  33292-3 0  9997
2 48478  53.0586 333.5137 0001234  90.8325 269.2806 15.06391488177117
STARLINK-2755           
1 48479U 21040BD  24206.39543227  .00000442  00000+0  48553-4 0  9996
2 48479  53.0551 335.0175 0001182 346.4358  13.6599 15.06399862177065
STARLINK-2690           
1 48480U 21040BE  24207.25002315  .00248515  00000+0  10608-2 0  9995
2 48480  53.0463 279.6949 0011727   0.5764 288.4494 15.83892402179191
STARLINK-2706           
1 48481U 21040BF  24206.38348399  .00010770  00000+0  74088-3 0  9997
2 48481  53.0557 345.3512 0000215 316.8291  43.2681 15.06395388176919
STARLINK-2525           
1 48482U 21040BG  24206.74836217 -.00002174  00000+0 -12714-3 0  9998
2 48482  53.0556 343.4337 0001190  92.5885 267.5241 15.06387046176974
STARLINK-2531           
1 48483U 21040BH  24206.67832512 -.00001427  00000+0 -76955-4 0  9993
2 48483  53.0586 343.7473 0001052  83.2967 276.8142 15.06394012176960
STARLINK-2696           
1 48484U 21040BJ  24206.88704248  .00004896  00000+0  34175-3 0  9999
2 48484  53.0555 343.1530 0000824 347.2059  12.8909 15.07012993176994
STARLINK-2500           
1 48485U 21040BK  24206.35396796  .00015913  00000+0  10851-2 0  9993
2 48485  53.0556 345.2047 0002855  85.7133 274.4182 15.06388533176911
STARLINK-2496           
1 48486U 21040BL  24206.91667824  .00511449  12162-3  10888-2 0  9990
2 48486  53.0389 287.4851 0015420 346.7081 229.0041 15.97904955  6026
STARLINK-2494           
1 48487U 21040BM  24206.75942310  .00002432  00000+0  18209-3 0  9996
2 48487  53.0575 343.3872 0001109  54.1602 305.9490 15.06394959176989
STARLINK-2063           
1 48553U 21041A   24207.20083020  .00020599  00000+0  13979-2 0  9998
2 48553  53.0547 271.4029 0000845  77.2828 282.8255 15.06396553176354
STARLINK-2139           
1 48554U 21041B   24207.15728827  .00002158  00000+0  16729-3 0  9992
2 48554  53.0524 271.7587 0001139  82.5672 277.5446 15.05565297176293
STARLINK-2145           
1 48555U 21041C   24206.44058925  .00001086  00000+0  91794-4 0  9994
2 48555  53.0541 284.8128 0001347  99.9076 260.2065 15.06391710175642
STARLINK-2151           
1 48556U 21041D   24206.42953444  .00001477  00000+0  11804-3 0  9990
2 48556  53.0525 284.8579 0001332 123.7446 236.3670 15.06397474176095
STARLINK-2155           
1 48557U 21041E   24206.56683854  .00000936  00000+0  81734-4 0  9990
2 48557  53.0528 274.2578 0001383  74.0936 286.0205 15.06386743176250
STARLINK-2166           
1 48558U 21041F   24206.56315210 -.00000678  00000+0 -26675-4 0  9997
2 48558  53.0531 274.2723 0001095  71.2789 288.8319 15.06386918174946
STARLINK-2187           
1 48562U 21041K   24206.60738041  .00004972  00000+0  35251-3 0  9996
2 48562  53.0538 274.0663 0001093  91.6590 268.4524 15.06391716176219
STARLINK-2188           
1 48563U 21041L   24206.42677138 -.00001660  00000+0 -92629-4 0  9992
2 48563  53.0522 274.8904 0001176  92.2478 267.8646 15.06387944176231
STARLINK-2190           
1 48564U 21041M   24206.41939446  .00000000  00000+0  18893-4 0  9991
2 48564  53.0533 274.9119 0001358 104.0685 256.0455 15.06390232175788
STARLINK-2191           
1 48565U 21041N   24206.39155574  .00024583  00000+0  16384-2 0  9994
2 48565  53.0536 274.7905 0000631 128.1001 232.0045 15.06964672175789
STARLINK-2214           
1 48566U 21041P   24206.43690065  .00001898  00000+0  14627-3 0  9992
2 48566  53.0525 284.7958 0000630  91.4177 268.6884 15.06396007176049
STARLINK-2217           
1 48568U 21041R   24206.39728428  .00009860  00000+0  67989-3 0  9990
2 48568  53.0533 275.0106 0000547 107.6439 252.4609 15.06400599175773
STARLINK-2219           
1 48569U 21041S   24207.21924855  .00004718  00000+0  33550-3 0  9999
2 48569  53.0535 271.3202 0001176  93.6338 266.4786 15.06389320176302
STARLINK-2220           
1 48570U 21041T   24207.20727429  .00007748  00000+0  53855-3 0  9994
2 48570  53.0533 281.3750 0000941  62.9855 297.1230 15.06395408176155
